     3.02           N: GNSS NAV DATA    G: GPS              RINEX VERSION / TYPE
Converto v3.5.6     IGN                 20210829 012101 UTC PGM / RUN BY / DATE
GPSA   9.3132E-09  2.2352E-08 -5.9605E-08 -1.1921E-07       IONOSPHERIC CORR
GPSB   9.2160E+04  1.1469E+05 -1.3107E+05 -5.8982E+05       IONOSPHERIC CORR
GPUT  3.7252902985E-09 1.776356839E-14 147456 2173          TIME SYSTEM CORR
    18    18  1929     7                                    LEAP SECONDS
                                                            END OF HEADER
G13 2021 08 28 18 00 00 1.776623539627D-04 5.229594535194D-12 0.000000000000D+00
     9.600000000000D+01-2.468750000000D+01 4.538403328430D-09-2.667496309643D-01
    -1.270323991776D-06 5.331836757250D-03 8.130446076393D-06 5.153682746887D+03
     5.832000000000D+05-6.519258022308D-08-2.851110497613D+00 2.235174179077D-08
     9.686478550884D-01 2.231875000000D+02 9.603538322605D-01-8.078550789781D-09
    -3.596578383355D-10 1.000000000000D+00 2.172000000000D+03 0.000000000000D+00
     2.000000000000D+00 0.000000000000D+00-1.117587089539D-08 9.600000000000D+01
     5.782200000000D+05                   
G13 2021 08 28 19 59 44 1.776996068656D-04 5.229594535194D-12 0.000000000000D+00
     1.700000000000D+01-2.493750000000D+01 4.616263714484D-09 7.810979669056D-01
    -1.128762960434D-06 5.331764696166D-03 8.275732398033D-06 5.153682601929D+03
     5.903840000000D+05 1.303851604462D-08-2.851169067002D+00 6.519258022308D-08
     9.686454676061D-01 2.237187500000D+02 9.603485335712D-01-8.111766459061D-09
    -2.857261873569D-10 1.000000000000D+00 2.172000000000D+03 0.000000000000D+00
     2.000000000000D+00 0.000000000000D+00-1.117587089539D-08 1.700000000000D+01
     5.869500000000D+05                   
G13 2021 08 28 20 00 00 1.777000725269D-04 5.229594535194D-12 0.000000000000D+00
     9.700000000000D+01-2.493750000000D+01 4.616263714484D-09 7.834315143472D-01
    -1.128762960434D-06 5.331765394658D-03 8.275732398033D-06 5.153682600021D+03
     5.904000000000D+05 1.303851604462D-08-2.851169211831D+00 6.519258022308D-08
     9.686454339589D-01 2.237187500000D+02 9.603487632493D-01-8.111766459061D-09
    -2.857261873569D-10 1.000000000000D+00 2.172000000000D+03 0.000000000000D+00
     2.000000000000D+00 0.000000000000D+00-1.117587089539D-08 9.700000000000D+01
     5.832000000000D+05                   
G13 2021 08 28 21 59 44 1.777377910912D-04 5.229594535194D-12 0.000000000000D+00
     1.800000000000D+01-2.225000000000D+01 4.583762360673D-09 1.831342269316D+00
    -1.164153218269D-06 5.331740016118D-03 8.352100849152D-06 5.153681926727D+03
     5.975840000000D+05-1.508742570877D-07-2.851227880697D+00-8.940696716309D-08
     9.686443865096D-01 2.231250000000D+02 9.602809526076D-01-7.958188633357D-09
    -1.528635102359D-10 1.000000000000D+00 2.172000000000D+03 0.000000000000D+00
     2.000000000000D+00 0.000000000000D+00-1.117587089539D-08 1.800000000000D+01
     5.904000000000D+05                   
G13 2021 08 29 00 00 00 1.777759753168D-04 5.229594535194D-12 0.000000000000D+00
     1.900000000000D+01-2.328125000000D+01 4.510902182897D-09 2.883948113569D+00
    -1.272186636925D-06 5.332189262845D-03 8.631497621536D-06 5.153680648804D+03
     0.000000000000D+00 9.313225746155D-09-2.971699883800D+00-8.754432201385D-08
     9.686439169129D-01 2.183750000000D+02 9.601852938573D-01-7.818539959286D-09
    -1.542921411727D-10 1.000000000000D+00 2.173000000000D+03 0.000000000000D+00
     2.000000000000D+00 0.000000000000D+00-1.117587089539D-08 1.900000000000D+01
    -7.200000000000D+03                   
G14 2021 08 28 00 00 00 1.413095742464D-05-8.412825991400D-12 0.000000000000D+00
     7.900000000000D+01 3.418750000000D+01 4.881631910992D-09-2.099407724873D-01
     1.568347215652D-06 1.065390068106D-03 4.265457391739D-06 5.153644321442D+03
     5.184000000000D+05 5.401670932770D-08-8.453836885039D-01-2.793967723846D-08
     9.557116713530D-01 2.974375000000D+02 3.081648539305D+00-8.420350741407D-09
    -1.285767843106D-10 1.000000000000D+00 2.172000000000D+03 0.000000000000D+00
     2.000000000000D+00 0.000000000000D+00-7.916241884232D-09 8.470000000000D+02
     5.112000000000D+05                   
G14 2021 08 28 10 00 00 1.382734626532D-05-8.412825991400D-12 0.000000000000D+00
     8.400000000000D+01 4.853125000000D+01 4.880917595524D-09-1.243530151942D+00
     2.389773726463D-06 1.066769240424D-03 4.651024937630D-06 5.153645450592D+03
     5.544000000000D+05 1.676380634308D-08-8.456876477708D-01-2.421438694000D-08
     9.557119463816D-01 2.861875000000D+02 3.083057260659D+00-8.393921069076D-09
     1.578637185147D-10 1.000000000000D+00 2.172000000000D+03 0.000000000000D+00
     2.000000000000D+00 0.000000000000D+00-7.916241884232D-09 8.520000000000D+02
     5.496600000000D+05                   
G14 2021 08 28 12 00 00 1.376681029797D-05-8.412825991400D-12 0.000000000000D+00
     8.500000000000D+01 4.737500000000D+01 4.830558355002D-09-1.934094266104D-01
     2.512708306313D-06 1.067064818926D-03 4.453584551811D-06 5.153645761490D+03
     5.616000000000D+05 2.048909664154D-08-8.457480853054D-01-2.421438694000D-08
     9.557130845318D-01 2.900625000000D+02 3.083137371516D+00-8.393206753608D-09
     1.575065607805D-10 1.000000000000D+00 2.172000000000D+03 0.000000000000D+00
     2.000000000000D+00 0.000000000000D+00-7.916241884232D-09 8.530000000000D+02
     5.544000000000D+05                   
G14 2021 08 28 14 00 00 1.370627433062D-05-8.412825991400D-12 0.000000000000D+00
     8.600000000000D+01 4.512500000000D+01 4.751626495745D-09 8.569459727252D-01
     2.365559339523D-06 1.067083212547D-03 4.498288035393D-06 5.153645700455D+03
     5.688000000000D+05 6.332993507385D-08-8.458079888749D-01 7.264316082001D-08
     9.557145401353D-01 2.910312500000D+02 3.082981602924D+00-8.296774165375D-09
     1.267909956396D-10 1.000000000000D+00 2.172000000000D+03 0.000000000000D+00
     2.000000000000D+00 0.000000000000D+00-7.916241884232D-09 8.540000000000D+02
     5.616000000000D+05                   
G14 2021 08 28 18 00 00 1.358473673463D-05-8.412825991400D-12 0.000000000000D+00
     8.800000000000D+01 5.153125000000D+01 4.659479800322D-09 2.956338712928D+00
     2.752989530563D-06 1.067873439752D-03 5.116686224937D-06 5.153646759033D+03
     5.832000000000D+05-2.980232238770D-08-8.459265744773D-01 1.862645149231D-09
     9.557155202904D-01 2.765625000000D+02 3.083985087192D+00-8.252129448601D-09
     4.393040130612D-11 1.000000000000D+00 2.172000000000D+03 0.000000000000D+00
     2.000000000000D+00 0.000000000000D+00-7.916241884232D-09 8.560000000000D+02
     5.812500000000D+05                   
G14 2021 08 28 19 59 44 1.352513208985D-05-8.412825991400D-12 0.000000000000D+00
     8.900000000000D+01 5.518750000000D+01 4.634835916663D-09-2.278735145940D+00
     2.875924110413D-06 1.068117329851D-03 5.383044481277D-06 5.153646488190D+03
     5.903840000000D+05-2.607703208923D-08-8.459858519179D-01 0.000000000000D+00
     9.557158538358D-01 2.731250000000D+02 3.083738582570D+00-8.248557871259D-09
     4.393040130612D-11 1.000000000000D+00 2.172000000000D+03 0.000000000000D+00
     2.000000000000D+00 0.000000000000D+00-7.916241884232D-09 8.570000000000D+02
     5.832000000000D+05                   
G14 2021 08 28 22 00 00 1.346459612250D-05-8.412825991400D-12 0.000000000000D+00
     9.000000000000D+01 5.812500000000D+01 4.670908847816D-09-1.226580110134D+00
     3.032386302948D-06 1.067875768058D-03 5.295500159264D-06 5.153645822525D+03
     5.976000000000D+05-5.215406417847D-08-8.460449464937D-01-9.872019290924D-08
     9.557159942759D-01 2.775000000000D+02 3.084115355658D+00-8.238914612435D-09
    -3.285851154604D-11 1.000000000000D+00 2.172000000000D+03 0.000000000000D+00
     2.000000000000D+00 0.000000000000D+00-7.916241884232D-09 8.580000000000D+02
     5.904000000000D+05                   
G14 2021 08 29 00 00 00 1.340406015515D-05-8.412825991400D-12 0.000000000000D+00
     9.100000000000D+01 5.540625000000D+01 4.771984486594D-09-1.763713156704D-01
     2.650544047356D-06 1.068408717401D-03 5.023553967476D-06 5.153646600723D+03
     0.000000000000D+00 5.960464477539D-08-9.665193517077D-01-1.862645149231D-08
     9.557151092104D-01 2.826875000000D+02 3.084105873023D+00-8.330346992389D-09
    -1.139333172086D-10 1.000000000000D+00 2.173000000000D+03 0.000000000000D+00
     2.000000000000D+00 0.000000000000D+00-7.916241884232D-09 8.590000000000D+02
    -7.200000000000D+03                   
G15 2021 08 28 00 00 00-1.253010705113D-04 2.728484105319D-12 0.000000000000D+00
     3.100000000000D+01-4.856250000000D+01 5.401653571982D-09 2.498932069888D+00
    -2.617016434669D-06 1.355508062989D-02 7.711350917816D-06 5.153667512894D+03
     5.184000000000D+05 5.401670932770D-08-3.102110792875D+00-2.309679985046D-07
     9.297166967179D-01 2.149062500000D+02 1.017583632248D+00-8.228557038144D-09
    -1.778645516296D-10 1.000000000000D+00 2.172000000000D+03 0.000000000000D+00
     2.000000000000D+00 0.000000000000D+00-1.071020960808D-08 3.100000000000D+01
     5.112000000000D+05                   
G15 2021 08 28 02 00 00-1.252815127373D-04 2.728484105319D-12 0.000000000000D+00
     3.200000000000D+01-4.750000000000D+01 5.346294123181D-09-2.734053783560D+00
    -2.784654498100D-06 1.355487620458D-02 7.677823305130D-06 5.153667844772D+03
     5.256000000000D+05 1.974403858185D-07-3.102170326326D+00-1.415610313416D-07
     9.297154868847D-01 2.125000000000D+02 1.017575306782D+00-8.248200713524D-09
    -1.060758470562D-10 1.000000000000D+00 2.172000000000D+03 0.000000000000D+00
     2.000000000000D+00 0.000000000000D+00-1.071020960808D-08 3.200000000000D+01
     5.184000000000D+05                   
